{"fetched_at":"2026-07-18T17:29:31.619Z","source":"https://celestrak.org/NORAD/elements/gp.php?GROUP=oneweb&FORMAT=JSON","constellation":"oneweb","records":[{"OBJECT_NAME":"ONEWEB-0634","OBJECT_ID":"2023-043AF","EPOCH":"2026-07-18T04:19:37.572672","CLASSIFICATION_TYPE":"U","MEAN_MOTION":13.15548332,"ECCENTRICITY":0.00022788,"INCLINATION":87.8982,"RA_OF_ASC_NODE":253.0538,"ARG_OF_PERICENTER":90.0976,"MEAN_ANOMALY":270.0416,"EPHEMERIS_TYPE":0,"NORAD_CAT_ID":56075,"ELEMENT_SET_NO":999,"REV_AT_EPOCH":16047,"BSTAR":-0.00027406939,"MEAN_MOTION_DOT":-9e-7,"MEAN_MOTION_DDOT":0},{"OBJECT_NAME":"ONEWEB-0635","OBJECT_ID":"2023-043AG","EPOCH":"2026-07-18T04:12:46.705248","CLASSIFICATION_TYPE":"U","MEAN_MOTION":13.1554763,"ECCENTRICITY":0.00018035,"INCLINATION":87.8992,"RA_OF_ASC_NODE":253.0198,"ARG_OF_PERICENTER":97.3068,"MEAN_ANOMALY":262.8267,"EPHEMERIS_TYPE":0,"NORAD_CAT_ID":56076,"ELEMENT_SET_NO":999,"REV_AT_EPOCH":16050,"BSTAR":-0.00057615928,"MEAN_MOTION_DOT":-0.00000204,"MEAN_MOTION_DDOT":0},{"OBJECT_NAME":"ONEWEB-0636","OBJECT_ID":"2023-043AH","EPOCH":"2026-07-18T04:01:21.756288","CLASSIFICATION_TYPE":"U","MEAN_MOTION":13.15548287,"ECCENTRICITY":0.00018495,"INCLINATION":87.8988,"RA_OF_ASC_NODE":253.0269,"ARG_OF_PERICENTER":96.9816,"MEAN_ANOMALY":263.1524,"EPHEMERIS_TYPE":0,"NORAD_CAT_ID":56077,"ELEMENT_SET_NO":999,"REV_AT_EPOCH":16048,"BSTAR":-0.000054816841,"MEAN_MOTION_DOT":-8e-8,"MEAN_MOTION_DDOT":0},{"OBJECT_NAME":"ONEWEB-0637","OBJECT_ID":"2023-043AJ","EPOCH":"2026-07-18T03:52:14.325888","CLASSIFICATION_TYPE":"U","MEAN_MOTION":13.15548648,"ECCENTRICITY":0.00019799,"INCLINATION":87.898,"RA_OF_ASC_NODE":253.0424,"ARG_OF_PERICENTER":90.831,"MEAN_ANOMALY":269.3047,"EPHEMERIS_TYPE":0,"NORAD_CAT_ID":56078,"ELEMENT_SET_NO":999,"REV_AT_EPOCH":16050,"BSTAR":0.00029847153,"MEAN_MOTION_DOT":0.00000125,"MEAN_MOTION_DDOT":0},{"OBJECT_NAME":"ONEWEB-0647","OBJECT_ID":"2023-043AK","EPOCH":"2026-07-18T03:45:23.363424","CLASSIFICATION_TYPE":"U","MEAN_MOTION":13.15549029,"ECCENTRICITY":0.00020207,"INCLINATION":87.8985,"RA_OF_ASC_NODE":253.0558,"ARG_OF_PERICENTER":101.7498,"MEAN_ANOMALY":258.3859,"EPHEMERIS_TYPE":0,"NORAD_CAT_ID":56079,"ELEMENT_SET_NO":999,"REV_AT_EPOCH":16049,"BSTAR":0.00014493656,"MEAN_MOTION_DOT":6.7e-7,"MEAN_MOTION_DDOT":0},{"OBJECT_NAME":"ONEWEB-0651","OBJECT_ID":"2023-043AL","EPOCH":"2026-07-18T05:28:04.792800","CLASSIFICATION_TYPE":"U","MEAN_MOTION":13.15548335,"ECCENTRICITY":0.00018274,"INCLINATION":87.8982,"RA_OF_ASC_NODE":253.0353,"ARG_OF_PERICENTER":93.6868,"MEAN_ANOMALY":266.4471,"EPHEMERIS_TYPE":0,"NORAD_CAT_ID":56080,"ELEMENT_SET_NO":999,"REV_AT_EPOCH":16170,"BSTAR":0.00042071801,"MEAN_MOTION_DOT":0.00000171,"MEAN_MOTION_DDOT":0},{"OBJECT_NAME":"ONEWEB-0718","OBJECT_ID":"2023-043AM","EPOCH":"2026-07-18T03:31:41.846304","CLASSIFICATION_TYPE":"U","MEAN_MOTION":13.15549946,"ECCENTRICITY":0.00024968,"INCLINATION":87.8988,"RA_OF_ASC_NODE":253.0316,"ARG_OF_PERICENTER":90.9648,"MEAN_ANOMALY":269.1768,"EPHEMERIS_TYPE":0,"NORAD_CAT_ID":56081,"ELEMENT_SET_NO":999,"REV_AT_EPOCH":16050,"BSTAR":0.0004610992,"MEAN_MOTION_DOT":0.00000186,"MEAN_MOTION_DDOT":0},{"OBJECT_NAME":"ONEWEB-0561","OBJECT_ID":"2023-068A","EPOCH":"2026-07-18T04:22:21.631584","CLASSIFICATION_TYPE":"U","MEAN_MOTION":13.20770193,"ECCENTRICITY":0.00018296,"INCLINATION":87.9187,"RA_OF_ASC_NODE":268.2666,"ARG_OF_PERICENTER":107.8622,"MEAN_ANOMALY":252.2711,"EPHEMERIS_TYPE":0,"NORAD_CAT_ID":56710,"ELEMENT_SET_NO":999,"REV_AT_EPOCH":15359,"BSTAR":0.00011143765,"MEAN_MOTION_DOT":5.8e-7,"MEAN_MOTION_DDOT":0},{"OBJECT_NAME":"ONEWEB-0668","OBJECT_ID":"2023-068B","EPOCH":"2026-07-18T03:09:37.965888","CLASSIFICATION_TYPE":"U","MEAN_MOTION":13.16594947,"ECCENTRICITY":0.00022378,"INCLINATION":87.9078,"RA_OF_ASC_NODE":222.6257,"ARG_OF_PERICENTER":80.1026,"MEAN_ANOMALY":280.0358,"EPHEMERIS_TYPE":0,"NORAD_CAT_ID":56711,"ELEMENT_SET_NO":999,"REV_AT_EPOCH":15585,"BSTAR":-0.00012692645,"MEAN_MOTION_DOT":-3.6e-7,"MEAN_MOTION_DDOT":0},{"OBJECT_NAME":"ONEWEB-0676","OBJECT_ID":"2023-068C","EPOCH":"2026-07-18T03:21:02.265120","CLASSIFICATION_TYPE":"U","MEAN_MOTION":13.16597979,"ECCENTRICITY":0.00014152,"INCLINATION":87.9118,"RA_OF_ASC_NODE":222.6322,"ARG_OF_PERICENTER":90.9231,"MEAN_ANOMALY":269.2062,"EPHEMERIS_TYPE":0,"NORAD_CAT_ID":56712,"ELEMENT_SET_NO":999,"REV_AT_EPOCH":15577,"BSTAR":0.0018702199,"MEAN_MOTION_DOT":0.00000728,"MEAN_MOTION_DDOT":0},{"OBJECT_NAME":"ONEWEB-0677","OBJECT_ID":"2023-068D","EPOCH":"2026-07-18T04:05:24.403776","CLASSIFICATION_TYPE":"U","MEAN_MOTION":13.20771971,"ECCENTRICITY":0.00018315,"INCLINATION":87.9182,"RA_OF_ASC_NODE":268.2608,"ARG_OF_PERICENTER":90.7747,"MEAN_ANOMALY":269.3596,"EPHEMERIS_TYPE":0,"NORAD_CAT_ID":56713,"ELEMENT_SET_NO":999,"REV_AT_EPOCH":15389,"BSTAR":0.000011806235,"MEAN_MOTION_DOT":1.8e-7,"MEAN_MOTION_DDOT":0},{"OBJECT_NAME":"ONEWEB-0678","OBJECT_ID":"2023-068E","EPOCH":"2026-07-18T04:35:35.866176","CLASSIFICATION_TYPE":"U","MEAN_MOTION":13.1554814,"ECCENTRICITY":0.00020931,"INCLINATION":87.8989,"RA_OF_ASC_NODE":253.0181,"ARG_OF_PERICENTER":105.2438,"MEAN_ANOMALY":254.8923,"EPHEMERIS_TYPE":0,"NORAD_CAT_ID":56714,"ELEMENT_SET_NO":999,"REV_AT_EPOCH":15336,"BSTAR":-0.000072382941,"MEAN_MOTION_DOT":-1.4e-7,"MEAN_MOTION_DDOT":0},{"OBJECT_NAME":"ONEWEB-0679","OBJECT_ID":"2023-068F","EPOCH":"2026-07-18T07:50:03.932160","CLASSIFICATION_TYPE":"U","MEAN_MOTION":13.1659445,"ECCENTRICITY":0.00018857,"INCLINATION":87.9078,"RA_OF_ASC_NODE":222.5844,"ARG_OF_PERICENTER":77.1371,"MEAN_ANOMALY":282.997,"EPHEMERIS_TYPE":0,"NORAD_CAT_ID":56715,"ELEMENT_SET_NO":999,"REV_AT_EPOCH":15582,"BSTAR":-0.00019768961,"MEAN_MOTION_DOT":-6.3e-7,"MEAN_MOTION_DDOT":0},{"OBJECT_NAME":"ONEWEB-0680","OBJECT_ID":"2023-068G","EPOCH":"2026-07-18T03:09:14.292288","CLASSIFICATION_TYPE":"U","MEAN_MOTION":13.2182616,"ECCENTRICITY":0.00021822,"INCLINATION":87.924,"RA_OF_ASC_NODE":237.8148,"ARG_OF_PERICENTER":79.5818,"MEAN_ANOMALY":280.5562,"EPHEMERIS_TYPE":0,"NORAD_CAT_ID":56716,"ELEMENT_SET_NO":999,"REV_AT_EPOCH":15518,"BSTAR":0.00011259217,"MEAN_MOTION_DOT":6e-7,"MEAN_MOTION_DDOT":0},{"OBJECT_NAME":"ONEWEB-0681","OBJECT_ID":"2023-068H","EPOCH":"2026-07-18T04:30:22.380192","CLASSIFICATION_TYPE":"U","MEAN_MOTION":13.21827462,"ECCENTRICITY":0.00011279,"INCLINATION":87.9236,"RA_OF_ASC_NODE":237.8035,"ARG_OF_PERICENTER":99.9579,"MEAN_ANOMALY":260.1682,"EPHEMERIS_TYPE":0,"NORAD_CAT_ID":56717,"ELEMENT_SET_NO":999,"REV_AT_EPOCH":15518,"BSTAR":0.000018408943,"MEAN_MOTION_DOT":2.1e-7,"MEAN_MOTION_DDOT":0},{"OBJECT_NAME":"ONEWEB-0682","OBJECT_ID":"2023-068J","EPOCH":"2026-07-18T03:20:18.275424","CLASSIFICATION_TYPE":"U","MEAN_MOTION":13.15548749,"ECCENTRICITY":0.00021062,"INCLINATION":87.899,"RA_OF_ASC_NODE":253.0284,"ARG_OF_PERICENTER":85.1574,"MEAN_ANOMALY":274.9797,"EPHEMERIS_TYPE":0,"NORAD_CAT_ID":56718,"ELEMENT_SET_NO":999,"REV_AT_EPOCH":15352,"BSTAR":0.0001699302,"MEAN_MOTION_DOT":7.7e-7,"MEAN_MOTION_DDOT":0}]}
