ONEWEB-0634             
1 56075U 23043AF  26199.18029598 -.00000090  00000+0 -27407-3 0  9997
2 56075  87.8982 253.0538 0002278  90.0976 270.0416 13.15548332160476
ONEWEB-0635             
1 56076U 23043AG  26199.17554057 -.00000204  00000+0 -57616-3 0  9992
2 56076  87.8992 253.0198 0001803  97.3068 262.8267 13.15547630160502
ONEWEB-0636             
1 56077U 23043AH  26199.16761292 -.00000008  00000+0 -54817-4 0  9996
2 56077  87.8988 253.0269 0001849  96.9816 263.1524 13.15548287160489
ONEWEB-0637             
1 56078U 23043AJ  26199.16127692  .00000125  00000+0  29847-3 0  9999
2 56078  87.8980 253.0424 0001979  90.8310 269.3047 13.15548648160503
ONEWEB-0647             
1 56079U 23043AK  26199.15652041  .00000067  00000+0  14494-3 0  9997
2 56079  87.8985 253.0558 0002020 101.7498 258.3859 13.15549029160495
ONEWEB-0651             
1 56080U 23043AL  26199.22783325  .00000171  00000+0  42072-3 0  9996
2 56080  87.8982 253.0353 0001827  93.6868 266.4471 13.15548335161705
ONEWEB-0718             
1 56081U 23043AM  26199.14701211  .00000186  00000+0  46110-3 0  9995
2 56081  87.8988 253.0316 0002496  90.9648 269.1768 13.15549946160505
ONEWEB-0561             
1 56710U 23068A   26199.18219481  .00000058  00000+0  11144-3 0  9995
2 56710  87.9187 268.2666 0001829 107.8622 252.2711 13.20770193153599
ONEWEB-0668             
1 56711U 23068B   26199.13168942 -.00000036  00000+0 -12693-3 0  9994
2 56711  87.9078 222.6257 0002237  80.1026 280.0358 13.16594947155857
ONEWEB-0676             
1 56712U 23068C   26199.13960955  .00000728  00000+0  18702-2 0  9991
2 56712  87.9118 222.6322 0001415  90.9231 269.2062 13.16597979155770
ONEWEB-0677             
1 56713U 23068D   26199.17042134  .00000018  00000+0  11806-4 0  9998
2 56713  87.9182 268.2608 0001831  90.7747 269.3596 13.20771971153892
ONEWEB-0678             
1 56714U 23068E   26199.19138734 -.00000014  00000+0 -72383-4 0  9998
2 56714  87.8989 253.0181 0002093 105.2438 254.8923 13.15548140153364
ONEWEB-0679             
1 56715U 23068F   26199.32643440 -.00000063  00000+0 -19769-3 0  9991
2 56715  87.9078 222.5844 0001885  77.1371 282.9970 13.16594450155826
ONEWEB-0680             
1 56716U 23068G   26199.13141542  .00000060  00000+0  11259-3 0  9998
2 56716  87.9240 237.8148 0002182  79.5818 280.5562 13.21826160155189
ONEWEB-0681             
1 56717U 23068H   26199.18775903  .00000021  00000+0  18409-4 0  9990
2 56717  87.9236 237.8035 0001127  99.9579 260.1682 13.21827462155181
ONEWEB-0682             
1 56718U 23068J   26199.13910041  .00000077  00000+0  16993-3 0  9996
2 56718  87.8990 253.0284 0002106  85.1574 274.9797 13.15548749153521
